[{"OBJECT_NAME":"OBJECT B","OBJECT_ID":"2021-091B","EPOCH":"2026-03-09T22:30:24.924672","MEAN_MOTION":15.17988278,"ECCENTRICITY":0.00142689,"INCLINATION":97.448,"RA_OF_ASC_NODE":258.0458,"ARG_OF_PERICENTER":31.6297,"MEAN_ANOMALY":328.5792,"EPHEMERIS_TYPE":0,"CLASSIFICATION_TYPE":"U","NORAD_CAT_ID":49316,"ELEMENT_SET_NO":999,"REV_AT_EPOCH":24392,"BSTAR":0.00037182994,"MEAN_MOTION_DOT":7.511e-5,"MEAN_MOTION_DDOT":0},{"OBJECT_NAME":"STARLINK-32534","OBJECT_ID":"2024-225N","EPOCH":"2026-03-09T15:20:24.560160","MEAN_MOTION":15.00407126,"ECCENTRICITY":0.000941,"INCLINATION":70.0029,"RA_OF_ASC_NODE":164.738,"ARG_OF_PERICENTER":305.672,"MEAN_ANOMALY":54.3563,"EPHEMERIS_TYPE":0,"CLASSIFICATION_TYPE":"U","NORAD_CAT_ID":62175,"ELEMENT_SET_NO":999,"REV_AT_EPOCH":6986,"BSTAR":0.10229,"MEAN_MOTION_DOT":0.0140918,"MEAN_MOTION_DDOT":0}]
